{"type": "FeatureCollection", "features": [ {"type": "Feature", "properties": {"norad_id": 30771, "name": "FENGYUN 1C DEB", "group": "fengyun-1c-debris", "lat": -24.99014785606407, "lon": 145.51740588768658, "alt_km": 748.3929157468519, "timestamp": "2025-12-20T03:42:47.671897+00:00", "meta": {"OBJECT_NAME": "FENGYUN 1C DEB", "OBJECT_ID": "1999-025AUH", "EPOCH": "2025-12-19T20:06:27.825120", "MEAN_MOTION": 14.43276905, "ECCENTRICITY": 0.0022588, "INCLINATION": 98.9054, "RA_OF_ASC_NODE": 329.3773, "ARG_OF_PERICENTER": 278.7812, "MEAN_ANOMALY": 81.0818, "EPHEMERIS_TYPE": 0, "CLASSIFICATION_TYPE": "U", "NORAD_CAT_ID": 30771, "ELEMENT_SET_NO": 999, "REV_AT_EPOCH": 97166, "BSTAR": 0.001616, "MEAN_MOTION_DOT": 5.414e-05, "MEAN_MOTION_DDOT": 0}, "tle": {"line1": "1 30771U 99025AUH 25353.83782205  .00005414  00000+0  16160-2 0  9995", "line2": "2 30771  98.9054 329.3773 0022588 278.7812  81.0818 14.43276905971665"}}, "geometry": {"type": "Point", "coordinates": [145.51740588768658, -24.99014785606407]}}, {"type": "Feature", "properties": {"norad_id": 30802, "name": "FENGYUN 1C DEB", "group": "fengyun-1c-debris", "lat": 46.27793796680107, "lon": 71.72474694141773, "alt_km": 768.0544114071163, "timestamp": "2025-12-20T03:42:47.671908+00:00", "meta": {"OBJECT_NAME": "FENGYUN 1C DEB", "OBJECT_ID": "1999-025AUL", "EPOCH": "2025-12-19T06:00:14.229216", "MEAN_MOTION": 14.3250634, "ECCENTRICITY": 0.0017708, "INCLINATION": 98.8376, "RA_OF_ASC_NODE": 80.1655, "ARG_OF_PERICENTER": 21.7718, "MEAN_ANOMALY": 43.0468, "EPHEMERIS_TYPE": 0, "CLASSIFICATION_TYPE": "U", "NORAD_CAT_ID": 30802, "ELEMENT_SET_NO": 999, "REV_AT_EPOCH": 97296, "BSTAR": 0.0012084, "MEAN_MOTION_DOT": 3.236e-05, "MEAN_MOTION_DDOT": 0}, "tle": {"line1": "1 30802U 99025AUL 25353.25016469  .00003236  00000+0  12084-2 0  9999", "line2": "2 30802  98.8376  80.1655 0017708  21.7718  43.0468 14.32506340972966"}}, "geometry": {"type": "Point", "coordinates": [71.72474694141773, 46.27793796680107]}}, {"type": "Feature", "properties": {"norad_id": 30803, "name": "FENGYUN 1C DEB", "group": "fengyun-1c-debris", "lat": 14.444210539645475, "lon": -150.04091996986497, "alt_km": 780.8174382938278, "timestamp": "2025-12-20T03:42:47.671917+00:00", "meta": {"OBJECT_NAME": "FENGYUN 1C DEB", "OBJECT_ID": "1999-025AUM", "EPOCH": "2025-12-19T20:24:14.383008", "MEAN_MOTION": 14.11277576, "ECCENTRICITY": 0.0107608, "INCLINATION": 99.2452, "RA_OF_ASC_NODE": 27.2411, "ARG_OF_PERICENTER": 181.7802, "MEAN_ANOMALY": 237.3446, "EPHEMERIS_TYPE": 0, "CLASSIFICATION_TYPE": "U", "NORAD_CAT_ID": 30803, "ELEMENT_SET_NO": 999, "REV_AT_EPOCH": 96099, "BSTAR": 0.00085499, "MEAN_MOTION_DOT": 1.584e-05, "MEAN_MOTION_DDOT": 0}, "tle": {"line1": "1 30803U 99025AUM 25353.85016647  .00001584  00000+0  85499-3 0  9999", "line2": "2 30803  99.2452  27.2411 0107608 181.7802 237.3446 14.11277576960996"}}, "geometry": {"type": "Point", "coordinates": [-150.04091996986497, 14.444210539645475]}}, {"type": "Feature", "properties": {"norad_id": 30804, "name": "FENGYUN 1C DEB", "group": "fengyun-1c-debris", "lat": -80.90446154453731, "lon": 138.0792060024512, "alt_km": 746.9674895771823, "timestamp": "2025-12-20T03:42:47.671927+00:00", "meta": {"OBJECT_NAME": "FENGYUN 1C DEB", "OBJECT_ID": "1999-025AUN", "EPOCH": "2025-12-19T03:30:23.738976", "MEAN_MOTION": 14.54639811, "ECCENTRICITY": 0.0185806, "INCLINATION": 98.8948, "RA_OF_ASC_NODE": 58.989, "ARG_OF_PERICENTER": 171.1332, "MEAN_ANOMALY": 219.9354, "EPHEMERIS_TYPE": 0, "CLASSIFICATION_TYPE": "U", "NORAD_CAT_ID": 30804, "ELEMENT_SET_NO": 999, "REV_AT_EPOCH": 99570, "BSTAR": 0.0003724371, "MEAN_MOTION_DOT": 1.944e-05, "MEAN_MOTION_DDOT": 0}, "tle": {"line1": "1 30804U 99025AUN 25353.14610809  .00001944  00000+0  37244-3 0  9997", "line2": "2 30804  98.8948  58.9890 0185806 171.1332 219.9354 14.54639811995703"}}, "geometry": {"type": "Point", "coordinates": [138.0792060024512, -80.90446154453731]}}, {"type": "Feature", "properties": {"norad_id": 30805, "name": "FENGYUN 1C DEB", "group": "fengyun-1c-debris", "lat": 59.264740617269844, "lon": -128.28006857756694, "alt_km": 918.9334760134934, "timestamp": "2025-12-20T03:42:47.671937+00:00", "meta": {"OBJECT_NAME": "FENGYUN 1C DEB", "OBJECT_ID": "1999-025AUP", "EPOCH": "2025-12-19T01:36:21.532896", "MEAN_MOTION": 14.02911471, "ECCENTRICITY": 0.00703103, "INCLINATION": 98.82, "RA_OF_ASC_NODE": 35.5292, "ARG_OF_PERICENTER": 266.172, "MEAN_ANOMALY": 122.9205, "EPHEMERIS_TYPE": 0, "CLASSIFICATION_TYPE": "U", "NORAD_CAT_ID": 30805, "ELEMENT_SET_NO": 999, "REV_AT_EPOCH": 96049, "BSTAR": 0.0007992, "MEAN_MOTION_DOT": 1.223e-05, "MEAN_MOTION_DDOT": 0}, "tle": {"line1": "1 30805U 99025AUP 25353.06691589  .00001223  00000+0  79920-3 0  9990", "line2": "2 30805  98.8200  35.5292 0070310 266.1720 122.9205 14.02911471960495"}}, "geometry": {"type": "Point", "coordinates": [-128.28006857756694, 59.264740617269844]}}, {"type": "Feature", "properties": {"norad_id": 30806, "name": "FENGYUN 1C DEB", "group": "fengyun-1c-debris", "lat": -13.812260036165746, "lon": 22.492677339816, "alt_km": 1111.7444148415707, "timestamp": "2025-12-20T03:42:47.671947+00:00", "meta": {"OBJECT_NAME": "FENGYUN 1C DEB", "OBJECT_ID": "1999-025AUQ", "EPOCH": "2025-12-18T22:33:05.282208", "MEAN_MOTION": 13.70428147, "ECCENTRICITY": 0.02681919, "INCLINATION": 99.0354, "RA_OF_ASC_NODE": 19.1077, "ARG_OF_PERICENTER": 114.1073, "MEAN_ANOMALY": 3.1426, "EPHEMERIS_TYPE": 0, "CLASSIFICATION_TYPE": "U", "NORAD_CAT_ID": 30806, "ELEMENT_SET_NO": 999, "REV_AT_EPOCH": 93780, "BSTAR": 0.00062916221, "MEAN_MOTION_DOT": 6.79e-06, "MEAN_MOTION_DDOT": 0}, "tle": {"line1": "1 30806U 99025AUQ 25352.93964447  .00000679  00000+0  62916-3 0  9993", "line2": "2 30806  99.0354  19.1077 0268191 114.1073   3.1426 13.70428147937808"}}, "geometry": {"type": "Point", "coordinates": [22.492677339816, -13.812260036165746]}}, {"type": "Feature", "properties": {"norad_id": 30809, "name": "FENGYUN 1C DEB", "group": "fengyun-1c-debris", "lat": -69.99807688088673, "lon": 108.41262117442822, "alt_km": 828.8573750122305, "timestamp": "2025-12-20T03:42:47.671957+00:00", "meta": {"OBJECT_NAME": "FENGYUN 1C DEB", "OBJECT_ID": "1999-025AUT", "EPOCH": "2025-12-19T04:31:51.768768", "MEAN_MOTION": 14.29283385, "ECCENTRICITY": 0.0052331, "INCLINATION": 98.7896, "RA_OF_ASC_NODE": 82.2849, "ARG_OF_PERICENTER": 153.5845, "MEAN_ANOMALY": 206.8021, "EPHEMERIS_TYPE": 0, "CLASSIFICATION_TYPE": "U", "NORAD_CAT_ID": 30809, "ELEMENT_SET_NO": 999, "REV_AT_EPOCH": 97179, "BSTAR": 0.0012793, "MEAN_MOTION_DOT": 3.259e-05, "MEAN_MOTION_DDOT": 0}, "tle": {"line1": "1 30809U 99025AUT 25353.18879362  .00003259  00000+0  12793-2 0  9999", "line2": "2 30809  98.7896  82.2849 0052331 153.5845 206.8021 14.29283385971794"}}, "geometry": {"type": "Point", "coordinates": [108.41262117442822, -69.99807688088673]}}, {"type": "Feature", "properties": {"norad_id": 30810, "name": "FENGYUN 1C DEB", "group": "fengyun-1c-debris", "lat": 5.471800744476044, "lon": 164.9219701607866, "alt_km": 766.0388008164118, "timestamp": "2025-12-20T03:42:47.671967+00:00", "meta": {"OBJECT_NAME": "FENGYUN 1C DEB", "OBJECT_ID": "1999-025AUU", "EPOCH": "2025-12-19T10:35:13.391808", "MEAN_MOTION": 14.04206306, "ECCENTRICITY": 0.0179856, "INCLINATION": 98.6615, "RA_OF_ASC_NODE": 165.0778, "ARG_OF_PERICENTER": 36.0547, "MEAN_ANOMALY": 325.2596, "EPHEMERIS_TYPE": 0, "CLASSIFICATION_TYPE": "U", "NORAD_CAT_ID": 30810, "ELEMENT_SET_NO": 999, "REV_AT_EPOCH": 94477, "BSTAR": 0.0020922, "MEAN_MOTION_DOT": 3.795e-05, "MEAN_MOTION_DDOT": 0}, "tle": {"line1": "1 30810U 99025AUU 25353.44112722  .00003795  00000+0  20922-2 0  9998", "line2": "2 30810  98.6615 165.0778 0179856  36.0547 325.2596 14.04206306944773"}}, "geometry": {"type": "Point", "coordinates": [164.9219701607866, 5.471800744476044]}}, {"type": "Feature", "properties": {"norad_id": 30811, "name": "FENGYUN 1C DEB", "group": "fengyun-1c-debris", "lat": -60.62065169981361, "lon": -163.1503852586776, "alt_km": 1202.8824260947786, "timestamp": "2025-12-20T03:42:47.671978+00:00", "meta": {"OBJECT_NAME": "FENGYUN 1C DEB", "OBJECT_ID": "1999-025AUV", "EPOCH": "2025-12-17T14:34:44.155200", "MEAN_MOTION": 13.61857756, "ECCENTRICITY": 0.02781138, "INCLINATION": 98.7814, "RA_OF_ASC_NODE": 30.4887, "ARG_OF_PERICENTER": 33.4511, "MEAN_ANOMALY": 328.3862, "EPHEMERIS_TYPE": 0, "CLASSIFICATION_TYPE": "U", "NORAD_CAT_ID": 30811, "ELEMENT_SET_NO": 999, "REV_AT_EPOCH": 92933, "BSTAR": 0.0014274331, "MEAN_MOTION_DOT": 1.384e-05, "MEAN_MOTION_DDOT": 0}, "tle": {"line1": "1 30811U 99025AUV 25351.60745550  .00001384  00000+0  14274-2 0  9991", "line2": "2 30811  98.7814  30.4887 0278113  33.4511 328.3862 13.61857756929338"}}, "geometry": {"type": "Point", "coordinates": [-163.1503852586776, -60.62065169981361]}}, {"type": "Feature", "properties": {"norad_id": 30814, "name": "FENGYUN 1C DEB", "group": "fengyun-1c-debris", "lat": 45.99506326302576, "lon": -38.27157856566897, "alt_km": 707.6420797841993, "timestamp": "2025-12-20T03:42:47.671988+00:00", "meta": {"OBJECT_NAME": "FENGYUN 1C DEB", "OBJECT_ID": "1999-025AUY", "EPOCH": "2025-12-19T14:38:54.650400", "MEAN_MOTION": 14.60592144, "ECCENTRICITY": 0.0030374, "INCLINATION": 99.0815, "RA_OF_ASC_NODE": 330.6644, "ARG_OF_PERICENTER": 210.6825, "MEAN_ANOMALY": 215.5653, "EPHEMERIS_TYPE": 0, "CLASSIFICATION_TYPE": "U", "NORAD_CAT_ID": 30814, "ELEMENT_SET_NO": 999, "REV_AT_EPOCH": 97842, "BSTAR": 0.0017029, "MEAN_MOTION_DOT": 8.284e-05, "MEAN_MOTION_DDOT": 0}, "tle": {"line1": "1 30814U 99025AUY 25353.61035475  .00008284  00000+0  17029-2 0  9992", "line2": "2 30814  99.0815 330.6644 0030374 210.6825 215.5653 14.60592144978420"}}, "geometry": {"type": "Point", "coordinates": [-38.27157856566897, 45.99506326302576]}}]}